{
  "norad_id": 63552,
  "name": "STARLINK-11685 [DTC]",
  "history": [
    {
      "epoch": "2026-03-28T21:41:12.059520Z",
      "apogee_km": 357.1518954958383,
      "perigee_km": 355.25038777816644,
      "latitude_deg": 1.5168683353661796e-05,
      "longitude_deg": -113.91550818531223,
      "height_km": 356.2473086193552,
      "semi_major_axis_km": 6734.338141637002,
      "eccentricity": 0.00014118,
      "inclination_deg": 43.0022,
      "raan_deg": 37.7021,
      "arg_perigee_deg": 253.2778,
      "mean_anomaly_deg": 106.7935,
      "mean_motion_rev_day": 15.7094284
    },
    {
      "epoch": "2026-03-29T04:00:01.999584Z",
      "apogee_km": 357.5914575497136,
      "perigee_km": 355.5885497388299,
      "latitude_deg": 31.379029175306652,
      "longitude_deg": -169.89719731993927,
      "height_km": 358.0166120987909,
      "semi_major_axis_km": 6734.7270036442715,
      "eccentricity": 0.0001487,
      "inclination_deg": 43.0002,
      "raan_deg": 36.119,
      "arg_perigee_deg": 279.5431,
      "mean_anomaly_deg": 129.9827,
      "mean_motion_rev_day": 15.70806783
    },
    {
      "epoch": "2026-03-30T04:12:25.040448Z",
      "apogee_km": 357.8368869185733,
      "perigee_km": 355.20902260422463,
      "latitude_deg": -1.59962018149713e-05,
      "longitude_deg": 139.36104900461066,
      "height_km": 355.92127771920997,
      "semi_major_axis_km": 6734.659954761399,
      "eccentricity": 0.0001951,
      "inclination_deg": 43.0006,
      "raan_deg": 30.0362,
      "arg_perigee_deg": 286.5659,
      "mean_anomaly_deg": 73.4994,
      "mean_motion_rev_day": 15.70830241
    },
    {
      "epoch": "2026-03-30T20:59:34.627776Z",
      "apogee_km": 359.4515531918405,
      "perigee_km": 353.48226966890616,
      "latitude_deg": -3.895275034015725e-05,
      "longitude_deg": -117.33449824493229,
      "height_km": 355.0393687431214,
      "semi_major_axis_km": 6734.603911430373,
      "eccentricity": 0.00044318,
      "inclination_deg": 43.0011,
      "raan_deg": 25.82,
      "arg_perigee_deg": 293.7494,
      "mean_anomaly_deg": 66.2908,
      "mean_motion_rev_day": 15.70849849
    },
    {
      "epoch": "2026-03-31T19:52:58.723680Z",
      "apogee_km": 357.371980717543,
      "perigee_km": 355.35297777366486,
      "latitude_deg": 4.8282672332671085e-06,
      "longitude_deg": -107.37390984361484,
      "height_km": 356.1662706493469,
      "semi_major_axis_km": 6734.499479245604,
      "eccentricity": 0.0001499,
      "inclination_deg": 43.0005,
      "raan_deg": 20.071,
      "arg_perigee_deg": 268.228,
      "mean_anomaly_deg": 91.8416,
      "mean_motion_rev_day": 15.70886388
    },
    {
      "epoch": "2026-04-01T03:30:46.736064Z",
      "apogee_km": 357.31768451187054,
      "perigee_km": 355.38286631764277,
      "latitude_deg": 4.519912851156367e-06,
      "longitude_deg": 135.94658554205378,
      "height_km": 355.94022563768686,
      "semi_major_axis_km": 6734.487275414756,
      "eccentricity": 0.00014365,
      "inclination_deg": 43.0009,
      "raan_deg": 18.1549,
      "arg_perigee_deg": 280.8817,
      "mean_anomaly_deg": 79.1889,
      "mean_motion_rev_day": 15.70890658
    },
    {
      "epoch": "2026-04-02T19:11:18.114144Z",
      "apogee_km": 356.94641081089594,
      "perigee_km": 355.46350871135655,
      "latitude_deg": 2.093079908472017e-05,
      "longitude_deg": -110.77714742024489,
      "height_km": 355.87263106108134,
      "semi_major_axis_km": 6734.341959761126,
      "eccentricity": 0.0001101,
      "inclination_deg": 42.9998,
      "raan_deg": 8.1913,
      "arg_perigee_deg": 278.1016,
      "mean_anomaly_deg": 81.9727,
      "mean_motion_rev_day": 15.70941504
    },
    {
      "epoch": "2026-04-02T19:11:18.115008Z",
      "apogee_km": 356.94634346747625,
      "perigee_km": 355.46357605477715,
      "latitude_deg": 2.0142427379873883e-05,
      "longitude_deg": -110.77715187077057,
      "height_km": 355.87264055133454,
      "semi_major_axis_km": 6734.341959761126,
      "eccentricity": 0.00011009,
      "inclination_deg": 42.9998,
      "raan_deg": 8.1913,
      "arg_perigee_deg": 278.1016,
      "mean_anomaly_deg": 81.9727,
      "mean_motion_rev_day": 15.70941504
    },
    {
      "epoch": "2026-04-03T18:04:43.313376Z",
      "apogee_km": 356.68380077162874,
      "perigee_km": 355.3814123697184,
      "latitude_deg": -1.5923057164486415e-05,
      "longitude_deg": -100.8220560138362,
      "height_km": 356.4492164713326,
      "semi_major_axis_km": 6734.169606570673,
      "eccentricity": 9.67e-05,
      "inclination_deg": 42.9989,
      "raan_deg": 2.4415,
      "arg_perigee_deg": 187.5396,
      "mean_anomaly_deg": 172.5457,
      "mean_motion_rev_day": 15.71001814
    }
  ]
}